SZ-21 DEB               
1 66515U 25246C   25321.59770946  .00031042  00000+0  36346-3 0  9996
2 66515  41.4750 169.2241 0004715  73.1508 286.9848 15.60861930   512
